SEEDS II (CO-66)        
1 32791U 08021J   26068.92109284  .00023758  00000+0  84213-3 0  9995
2 32791  97.7519  62.3611 0001448 359.2618   0.8619 15.29097235972108
STARLINK-31193          
1 58797U 24012L   26068.34153555 -.00002875  00000+0 -94978-4 0  9992
2 58797  43.0014 167.1338 0001525 274.8459  85.2219 15.27580624121181
